#cP2022  3 13 12  0  0.00000000     576 d+D   IGb14 EXT AIUB
## 2201  43200.00000000   300.00000000 59651 0.5000000000000
+   78   G01G02G03G04G05G06G07G08G09G10G11G12G13G14G15G16G17
+        G18G19G20G21G22G23G24G25G26G27G28G29G30G31G32R01R02
+        R03R04R05R07R08R09R11R12R13R14R15R17R18R19R20R21R22
+        R24E01E02E03E04E05E07E08E09E10E11E12E13E14E15E18E19
+        E21E24E25E26E27E30E31E33E34E36  0  0  0  0  0  0  0
++         6  7  6  9  7  7  7  6  6  5  8  7  7  7  7  7  6
++         8  8  7  7  7  7  7  6  6  5  7  7  6  7  6  8  8
++         8  8  8  8  8  7  8  7  7  7  7  7  7  9  9  8  7
++         7  6  6  7  7  7  6  6  6  7  7  6  6  7  7  7  8
++         6  6  5  6  5  6  6  7  7  7  0  0  0  0  0  0  0
%c M  cc GPS ccc cccc cccc cccc cccc ccccc ccccc ccccc ccccc
%c cc cc ccc ccc cccc cccc cccc cccc ccccc ccccc ccccc ccccc
%f  1.2500000  1.025000000  0.00000000000  0.000000000000000
%f  0.0000000  0.000000000  0.00000000000  0.000000000000000
%i    0    0    0    0      0      0      0      0         0
%i    0    0    0    0      0      0      0      0         0
/* Center for Orbit Determination in Europe (CODE)          
/* Ultra-rapid GRE orbits starting year-day 22072 12 hour   
/* Observed/predicted: 24/24 hours (data used up to 073L)   
/* PCV:IGS14      OL/AL:FES2014b NONE     YN ORB:CoN CLK:BRD
*  2022  3 14  9 25  0.00000000
PG01 -13921.602225   4261.105124  21915.362011    409.281529
PG02  14422.134561  17437.923632 -13132.127394   -652.228473
PG03 -22133.137352  11513.410724   8843.954365   -162.887859
PG04 -22983.785464   1323.077818 -13311.192580   -183.728226
PG05  17749.538197   2240.910828 -19840.044629    -74.624522
PG06   5343.897260  25971.120366   -267.924188    230.910002
PG07  -7065.263366  20092.366627 -15163.070479    315.915871
PG08 -25930.506599  -5493.318130   3597.176062    -59.792859
PG09 -14430.730215  10228.963465 -19889.640693   -349.832042
PG10   6579.963161 -20267.309656  15811.857753   -346.527673
PG11  12603.534683  18719.497986 -14021.477043    -63.708462
PG12  22622.797580  -7538.347940  11289.586473   -184.671255
PG13  22805.879766  13500.408434  -2956.505641    276.633411
PG14  -8205.765696  20352.418548  14903.598686    -93.690161
PG15  26308.837969   2548.594832   3587.552244    -76.903322
PG16 -14667.388965  -7316.167030 -21259.409238   -480.476096
PG17   1746.376562  16200.460269  21398.128204    587.031031
PG18   7186.560747 -20181.517507 -15636.333233    220.162852
PG19  10010.673050  17366.822304  17261.145742    130.830698
PG20  11223.825410  10923.637971 -21457.335597    516.306495
PG21 -16763.377500  -6899.171923  20283.223042    159.364650
PG22 -12694.786263 -17538.717881  15911.348977    227.297890
PG23  15723.358438 -20449.390059   6107.010441     -6.683107
PG24  16051.555220    -38.455204  20909.832939    268.146231
PG25  19663.312010 -17623.904589    -51.062561    298.113225
PG26  -4741.223128 -16336.757974 -20414.484808    190.675547
PG27 -22343.162934 -12825.776318  -7467.054472    153.442125
PG28   -441.669840  17676.476122  20405.435128    380.792591
PG29  16620.829022  -7148.536359 -19514.068764   -491.178503
PG30  -1626.743159  25011.518653  -8322.934621   -518.612755
PG31  -6729.896558 -25256.231464  -3095.796002   -168.863999
PG32  -6496.539732 -16734.410380  19770.657717    -84.530996
PR01   6591.546449 -11601.280365  21748.360489      7.227946
PR02 -14576.136195  -7490.694029  19616.284807    512.444492
PR03 -24938.558406    654.639337   5504.324134     53.095144
PR04 -21258.153352   8131.101842 -11495.375628    131.854941
PR05  -5928.941401  11169.304933 -22141.959199     89.341435
PR07  25025.868821  -1046.467780  -4652.553625     32.626766
PR08  21085.519132  -8351.639518  11710.635048    -63.996715
PR09   4714.264044  15102.995402  19997.358097     44.279869
PR11  13321.769372 -18011.764760  12213.703429 999999.999999
PR12   6567.963946 -23870.379115  -6077.273023     17.431846
PR13  -3724.639500 -16043.514860 -19497.324567    -19.435979
PR14 -12486.418244   2313.088897 -22114.716868     75.361690
PR15 -13465.857660  18368.709557 -11475.064948     97.558160
PR17 -16863.004026  -9902.210003  16369.645901    509.410689
PR18  -9099.199131   5243.821672  23263.020297    110.228108
PR19   2169.103835  17313.649478  18605.860890   -181.519966
PR20  14476.542811  20962.075297    617.091346    -66.721117
PR21  16441.202939   8841.262549 -17391.928323   -285.187426
PR22   8395.956800  -6113.312708 -23309.544407   -170.497328
PR24 -15250.468504 -20443.430700    140.335231     84.316462
PE01   4792.020543 -23407.994167 -17469.593841   -596.508436
PE02  -4679.168342  23371.186726  17558.035005    286.154186
PE03   5558.111350  17676.956286 -23084.317732   -537.218564
PE04 -24018.253984 -12952.003205  11479.249569   -984.223154
PE05 -16551.943541  12099.408440 -21345.460671   -200.518593
PE07  28707.530038    426.623278   7227.522956   -648.190967
PE08  24337.103733  12606.762489 -11187.490209   -494.884038
PE09 -28636.821333   -211.840929  -7458.036395   5329.029724
PE10 -18041.815161 -12489.384956  19864.697652   -500.429100
PE11 -17038.876279  -1102.289407  24177.356014   4233.685050
PE12 -16147.257175 -21392.132157  12592.710987   4714.293362
PE13  17121.785004   1820.246111 -24067.535289    427.269264
PE14  -3087.814474 -20735.239881 -21828.892486  -1777.672905
PE15  16109.194442  21457.343221 -12477.480607    757.882773
PE18  18490.211935  17191.656805  10415.929344  -1685.902019
PE19  -2737.039634 -17427.317779  23777.712942  -1291.174203
PE21  18779.295151 -22835.866172  -1335.855123   -722.446344
PE24 -22702.609760   7796.490053 -17357.032913   -504.575697
PE25 -18930.884884  22737.539485   1072.759279   -566.745794
PE26   7619.447188 -19605.477538 -20821.664558   -910.650947
PE27  22840.167202  -9069.593997  16486.080761   -252.816778
PE30  12602.503953  10945.656086  24430.027050   -347.369338
PE31 -13435.725736  -9897.048300 -24446.673455   -493.508931
PE33  -5615.195168 -28356.631168  -6398.136216   -458.582700
PE34   5796.372640  28355.173965   6207.679928   -506.671301
PE36  -8086.083141  18727.717408  21449.389429   -345.085879
EOF
